NORAD_CAT_ID,OBJECT_NAME,OBJECT_TYPE,EPOCH,MEAN_MOTION,ECCENTRICITY,INCLINATION,RA_OF_ASC_NODE,ARG_OF_PERICENTER,MEAN_ANOMALY,BSTAR,MEAN_MOTION_DOT,MEAN_MOTION_DDOT,TLE_LINE0,TLE_LINE1,TLE_LINE2,SEMIMAJOR_AXIS,PERIOD,APOGEE,PERIGEE,DECAYED
53702.0,STARLINK-4724,PAYLOAD,2023-09-12 15:54:08,15.08855146,0.0001281,53.2192,349.8023,88.4902,271.6237,0.00010489,1.382e-05,0.0,0 STARLINK-4724,1 53702U 22107C   23255.66260078  .00001382  00000-0  10489-3 0  9990,2 53702  53.2192 349.8023 0001281  88.4902 271.6237 15.08855146 57084,6917.834,95.437,540.585,538.813,0.0
53702.0,STARLINK-4724,PAYLOAD,2023-09-13 09:23:23,15.08849267,0.0001322,53.2178,346.5317,94.9601,265.1542,0.00013251,1.822e-05,0.0,0 STARLINK-4724,1 53702U 22107C   23256.39124423  .00001822  00000-0  13251-3 0  9993,2 53702  53.2178 346.5317 0001322  94.9601 265.1542 15.08849267 57198,6917.852,95.437,540.632,538.803,0.0
53702.0,STARLINK-4724,PAYLOAD,2023-09-13 12:34:09,15.08853498,0.0001406,53.2183,345.937,77.4804,282.6346,0.00021946,3.208e-05,0.0,0 STARLINK-4724,1 53702U 22107C   23256.52372172  .00003208  00000-0  21946-3 0  9994,2 53702  53.2183 345.9370 0001406  77.4804 282.6346 15.08853498 57995,6917.839,95.437,540.677,538.731,0.0
53702.0,STARLINK-4724,PAYLOAD,2023-09-13 17:20:18,15.08863315,0.00015,53.217,345.0433,91.6704,268.446,0.00032249,4.851e-05,0.0,0 STARLINK-4724,1 53702U 22107C   23256.72243402  .00004851  00000-0  32249-3 0  9992,2 53702  53.2170 345.0433 0001500  91.6704 268.4460 15.08863315 57240,6917.809,95.436,540.712,538.636,0.0
53702.0,STARLINK-4724,PAYLOAD,2023-09-14 10:49:35,15.08817864,0.0001591,53.2175,341.7723,112.0096,248.1065,-0.00028028,-4.743e-05,0.0,0 STARLINK-4724,1 53702U 22107C   23257.45110181 -.00004743  00000-0 -28028-3 0  9992,2 53702  53.2175 341.7723 0001591 112.0096 248.1065 15.08817864 57358,6917.948,95.439,540.914,538.712,0.0
53702.0,STARLINK-4724,PAYLOAD,2023-09-14 12:24:58,15.08818808,0.0001399,53.2184,341.4768,102.077,258.0379,-0.00033237,-5.571e-05,0.0,0 STARLINK-4724,1 53702U 22107C   23257.51734267 -.00005571  00000-0 -33237-3 0  9994,2 53702  53.2184 341.4768 0001399 102.0770 258.0379 15.08818808 58143,6917.945,95.439,540.778,538.842,0.0
53702.0,STARLINK-4724,PAYLOAD,2023-09-15 10:40:22,15.08840376,0.0001321,53.2182,337.316,104.938,255.1758,6.88e-05,8.07e-06,0.0,0 STARLINK-4724,1 53702U 22107C   23258.44470010  .00000807  00000-0  68800-4 0  9990,2 53702  53.2182 337.3160 0001321 104.9380 255.1758 15.08840376 57507,6917.879,95.438,540.658,538.83,0.0
53702.0,STARLINK-4724,PAYLOAD,2023-09-15 12:15:45,15.08842828,0.0001352,53.2183,337.0184,108.3018,251.8121,0.00012393,1.685e-05,0.0,0 STARLINK-4724,1 53702U 22107C   23258.51093913  .00001685  00000-0  12393-3 0  9991,2 53702  53.2183 337.0184 0001352 108.3018 251.8121 15.08842828 58299,6917.872,95.437,540.672,538.801,0.0
53702.0,STARLINK-4724,PAYLOAD,2023-09-16 12:06:32,15.08854667,0.0001442,53.219,332.5597,106.8905,253.2245,0.00045127,6.904e-05,0.0,0 STARLINK-4724,1 53702U 22107C   23259.50454240  .00006904  00000-0  45127-3 0  9995,2 53702  53.2190 332.5597 0001442 106.8905 253.2245 15.08854667 58447,6917.836,95.437,540.698,538.703,0.0
53702.0,STARLINK-4724,PAYLOAD,2023-09-16 15:17:18,15.08860252,0.0001425,53.2187,331.9641,107.7602,252.3546,0.00061003,9.439e-05,0.0,0 STARLINK-4724,1 53702U 22107C   23259.63702012  .00009439  00000-0  61003-3 0  9999,2 53702  53.2187 331.9641 0001425 107.7602 252.3546 15.08860252 57687,6917.818,95.436,540.669,538.698,0.0
53702.0,STARLINK-4724,PAYLOAD,2023-09-17 10:21:56,15.08852429,0.0001445,53.2183,328.3952,102.4216,257.6938,0.00022442,3.287e-05,0.0,0 STARLINK-4724,1 53702U 22107C   23260.43189858  .00003287  00000-0  22442-3 0  9995,2 53702  53.2183 328.3952 0001445 102.4216 257.6938 15.08852429 57807,6917.842,95.437,540.707,538.708,0.0
53702.0,STARLINK-4724,PAYLOAD,2023-09-17 11:57:19,15.08855759,0.0001397,53.2179,328.0974,100.0245,260.0905,0.0002657,3.945e-05,0.0,0 STARLINK-4724,1 53702U 22107C   23260.49813708  .00003945  00000-0  26570-3 0  9996,2 53702  53.2179 328.0974 0001397 100.0245 260.0905 15.08855759 58593,6917.832,95.437,540.664,538.731,0.0
53702.0,STARLINK-4724,PAYLOAD,2023-09-17 23:05:01,15.08848457,0.0001399,53.2176,326.0175,96.769,263.3461,0.00010525,1.388e-05,0.0,0 STARLINK-4724,1 53702U 22107C   23260.96181748  .00001388  00000-0  10525-3 0  9992,2 53702  53.2176 326.0175 0001399  96.7690 263.3461 15.08848457 57889,6917.855,95.437,540.687,538.752,0.0
53702.0,STARLINK-4724,PAYLOAD,2023-09-18 11:48:05,15.08850401,0.0001385,53.2167,323.6372,91.7631,268.3519,0.00010121,1.324e-05,0.0,0 STARLINK-4724,1 53702U 22107C   23261.49173537  .00001324  00000-0  10121-3 0  9990,2 53702  53.2167 323.6372 0001385  91.7631 268.3519 15.08850401 58743,6917.849,95.437,540.672,538.755,0.0
53702.0,STARLINK-4724,PAYLOAD,2023-09-19 10:03:29,15.08855241,0.0001513,53.2173,319.4744,87.6405,272.476,0.00027066,4.024e-05,0.0,0 STARLINK-4724,1 53702U 22107C   23262.41909019  .00004024  00000-0  27066-3 0  9991,2 53702  53.2173 319.4744 0001513  87.6405 272.4760 15.08855241 58103,6917.834,95.437,540.745,538.652,0.0
53702.0,STARLINK-4724,PAYLOAD,2023-09-20 09:54:17,15.08828632,0.0001435,53.2157,315.0131,75.3256,284.7895,-0.00010827,-2.01e-05,0.0,0 STARLINK-4724,1 53702U 22107C   23263.41270314 -.00002010  00000-0 -10827-3 0  9993,2 53702  53.2157 315.0131 0001435  75.3256 284.7895 15.08828632 58253,6917.915,95.438,540.773,538.787,0.0
53702.0,STARLINK-4724,PAYLOAD,2023-09-21 09:45:04,15.08842369,0.0001648,53.2173,310.55,89.4135,270.7046,0.00040347,6.139e-05,0.0,0 STARLINK-4724,1 53702U 22107C   23264.40630535  .00006139  00000-0  40347-3 0  9992,2 53702  53.2173 310.5500 0001648  89.4135 270.7046 15.08842369 58402,6917.873,95.437,540.878,538.598,0.0
53702.0,STARLINK-4724,PAYLOAD,2023-09-21 14:31:14,15.08848515,0.0001623,53.2173,309.6566,90.3313,269.7865,0.00055571,8.569e-05,0.0,0 STARLINK-4724,1 53702U 22107C   23264.60502372  .00008569  00000-0  55571-3 0  9995,2 53702  53.2173 309.6566 0001623  90.3313 269.7865 15.08848515 59211,6917.854,95.437,540.842,538.597,0.0
53702.0,STARLINK-4724,PAYLOAD,2023-09-22 03:14:19,15.08843059,0.0001464,53.2178,307.2802,69.9606,290.1544,0.00025917,3.839e-05,0.0,0 STARLINK-4724,1 53702U 22107C   23265.13494621  .00003839  00000-0  25917-3 0  9997,2 53702  53.2178 307.2802 0001464  69.9606 290.1544 15.08843059 58515,6917.871,95.437,540.749,538.723,0.0
53702.0,STARLINK-4724,PAYLOAD,2023-09-22 09:35:51,15.08849625,0.0001555,53.2163,306.0904,80.5548,279.562,0.00041646,6.348e-05,0.0,0 STARLINK-4724,1 53702U 22107C   23265.39990406  .00006348  00000-0  41646-3 0  9992,2 53702  53.2163 306.0904 0001555  80.5548 279.5620 15.08849625 59336,6917.851,95.437,540.792,538.64,0.0
53702.0,STARLINK-4724,PAYLOAD,2023-09-22 14:22:00,15.08857809,0.0001582,53.2171,305.1981,76.4332,283.6837,0.00051956,7.994e-05,0.0,0 STARLINK-4724,1 53702U 22107C   23265.59862074  .00007994  00000-0  51956-3 0  9996,2 53702  53.2171 305.1981 0001582  76.4332 283.6837 15.08857809 58580,6917.826,95.436,540.785,538.597,0.0
53702.0,STARLINK-4724,PAYLOAD,2023-09-23 09:26:38,15.08854717,0.0001564,53.2164,301.6299,82.5143,277.6027,0.0005337,8.219e-05,0.0,0 STARLINK-4724,1 53702U 22107C   23266.39349956  .00008219  00000-0  53370-3 0  9997,2 53702  53.2164 301.6299 0001564  82.5143 277.6027 15.08854717 58706,6917.835,95.437,540.782,538.618,0.0
53702.0,STARLINK-4724,PAYLOAD,2023-09-24 10:52:48,15.08846005,0.0001463,53.216,296.8717,95.6649,264.451,0.00061245,9.474e-05,0.0,0 STARLINK-4724,1 53702U 22107C   23267.45334194  .00009474  00000-0  61245-3 0  9997,2 53702  53.2160 296.8717 0001463  95.6649 264.4510 15.08846005 58865,6917.862,95.437,540.739,538.715,0.0
53702.0,STARLINK-4724,PAYLOAD,2023-09-24 12:28:11,15.08848877,0.0001403,53.2158,296.5743,91.304,268.8113,0.00061336,9.489e-05,0.0,0 STARLINK-4724,1 53702U 22107C   23267.51958141  .00009489  00000-0  61336-3 0  9995,2 53702  53.2158 296.5743 0001403  91.3040 268.8113 15.08848877 59654,6917.853,95.437,540.689,538.748,0.0
53702.0,STARLINK-4724,PAYLOAD,2023-09-25 09:08:12,15.08846578,0.0001561,53.216,292.7113,83.5385,276.5785,0.00081316,0.00012679,0.0,0 STARLINK-4724,1 53702U 22107C   23268.38070483  .00012679  00000-0  81316-3 0  9990,2 53702  53.2160 292.7113 0001561  83.5385 276.5785 15.08846578 59002,6917.86,95.437,540.805,538.645,0.0
53702.0,STARLINK-4724,PAYLOAD,2023-09-25 12:18:59,15.08846152,0.0001512,53.2156,292.1182,79.9726,280.1437,0.00043677,6.671e-05,0.0,0 STARLINK-4724,1 53702U 22107C   23268.51318481  .00006671  00000-0  43677-3 0  9991,2 53702  53.2156 292.1182 0001512  79.9726 280.1437 15.08846152 59802,6917.862,95.437,540.773,538.681,0.0
53702.0,STARLINK-4724,PAYLOAD,2023-09-25 18:40:31,15.08835068,0.0001545,53.2162,290.9247,94.9854,265.1315,8.7631e-05,1.107e-05,0.0,0 STARLINK-4724,1 53702U 22107C   23268.77814771  .00001107  00000-0  87631-4 0  9990,2 53702  53.2162 290.9247 0001545  94.9854 265.1315 15.08835068 59062,6917.895,95.438,540.829,538.692,0.0
53702.0,STARLINK-4724,PAYLOAD,2023-09-26 08:58:59,15.08847227,0.0001507,53.2154,288.2486,91.894,268.2225,0.00024933,3.683e-05,0.0,0 STARLINK-4724,1 53702U 22107C   23269.37430390  .00003683  00000-0  24933-3 0  9994,2 53702  53.2154 288.2486 0001507  91.8940 268.2225 15.08847227 59152,6917.858,95.437,540.766,538.681,0.0
53702.0,STARLINK-4724,PAYLOAD,2023-09-27 02:28:14,15.08841301,0.0001547,53.2144,284.9792,90.648,269.469,8.2875e-05,1.031e-05,0.0,0 STARLINK-4724,1 53702U 22107C   23270.10294700  .00001031  00000-0  82875-4 0  9995,2 53702  53.2144 284.9792 0001547  90.6480 269.4690 15.08841301 59262,6917.876,95.437,540.812,538.671,0.0
53702.0,STARLINK-4724,PAYLOAD,2023-09-27 08:49:47,15.08834177,0.0001476,53.2156,283.7877,93.6133,266.5028,-1.6204e-05,-5.46e-06,0.0,0 STARLINK-4724,1 53702U 22107C   23270.36791258 -.00000546  00000-0 -16204-4 0  9998,2 53702  53.2156 283.7877 0001476  93.6133 266.5028 15.08834177 59306,6917.898,95.438,540.784,538.742,0.0
